OBJECT_NAME,OBJECT_ID,EPOCH,MEAN_MOTION,ECCENTRICITY,INCLINATION,RA_OF_ASC_NODE,ARG_OF_PERICENTER,MEAN_ANOMALY,EPHEMERIS_TYPE,CLASSIFICATION_TYPE,NORAD_CAT_ID,ELEMENT_SET_NO,REV_AT_EPOCH,BSTAR,MEAN_MOTION_DOT,MEAN_MOTION_DDOT
IRIDIUM 156,2018-061H,2026-06-09T02:15:26.171424,14.34219798,.0002107,86.3965,60.1133,80.6103,279.5331,0,U,43576,999,41221,.68913E-4,.213E-5,0
IRIDIUM 164,2018-061J,2026-06-09T01:48:02.414016,14.34217536,.0002073,86.3967,60.1615,88.2235,271.9198,0,U,43577,999,41225,.3044E-4,.105E-5,0
IRIDIUM 159,2018-061K,2026-06-09T04:23:18.386016,14.34216862,.0002322,86.3967,60.0535,84.5659,275.5802,0,U,43578,999,41223,.65616E-4,.204E-5,0
IRIDIUM 180,2019-002A,2026-06-09T01:01:38.899776,14.34218007,.0002236,86.3973,357.0033,88.9807,271.1645,0,U,43922,999,38782,.90781E-5,.45E-6,0
IRIDIUM 176,2019-002B,2026-06-09T01:41:59.538336,14.72256003,.000221,86.6094,356.9359,91.0287,269.1183,0,U,43923,999,39805,.1046E-3,.684E-5,0
IRIDIUM 168,2019-002C,2026-06-09T00:52:30.974304,14.34217684,.0002179,86.3976,357.0830,89.0454,271.0992,0,U,43924,999,38780,.52014E-5,.34E-6,0
IRIDIUM 173,2019-002D,2026-06-09T02:14:42.858240,14.34217322,.0002242,86.3972,356.9482,86.4051,273.7401,0,U,43925,999,38779,.13891E-4,.59E-6,0
IRIDIUM 169,2019-002E,2026-06-09T04:24:37.596672,14.38610825,.0002138,86.4233,28.5398,70.4497,289.6932,0,U,43926,999,38907,.71982E-4,.24E-5,0
IRIDIUM 172,2019-002F,2026-06-09T02:05:34.816128,14.34218564,.0002272,86.3972,356.9589,89.0872,271.0584,0,U,43927,999,38780,.26873E-4,.95E-6,0
IRIDIUM 175,2019-002G,2026-06-09T02:19:12.752832,14.43608182,.0001456,86.4506,293.9035,212.2035,147.9077,0,U,43928,999,39781,.81329E-4,.296E-5,0
IRIDIUM 171,2019-002H,2026-06-09T01:38:10.821120,14.34218825,.0002007,86.3981,357.2719,86.6983,273.4443,0,U,43929,999,38779,.53291E-4,.169E-5,0
IRIDIUM 170,2019-002J,2026-06-09T01:50:53.778912,14.72256440,.0002339,86.6092,356.9359,87.4821,272.6664,0,U,43930,999,39806,.10517E-3,.688E-5,0
IRIDIUM 167,2019-002K,2026-06-09T01:29:02.898240,14.34217599,.0001857,86.3973,356.9915,86.3649,273.7759,0,U,43931,999,38779,.11969E-5,.23E-6,0
IRIDIUM 181,2023-068S,2026-06-08T18:53:10.995648,14.43310337,.0002292,86.4503,60.3019,90.6912,269.4551,0,U,56726,999,16122,.91281E-4,.327E-5,0
IRIDIUM 177,2023-068T,2026-06-09T00:10:52.298400,14.80225018,.0002432,86.1960,332.6774,85.8986,274.2513,0,U,56727,999,16515,.12651E-3,.988E-5,0
IRIDIUM 174,2023-068U,2026-06-09T01:33:06.103008,14.72252362,.0002569,86.6100,357.0878,85.3548,274.7962,0,U,56728,999,16482,.10621E-3,.694E-5,0
IRIDIUM 178,2023-068V,2026-06-09T01:32:33.906912,14.80219470,.000267,86.6545,28.7551,89.1211,271.0317,0,U,56729,999,16516,.11129E-3,.872E-5,0
IRIDIUM 179,2023-068W,2026-06-09T04:39:32.036256,14.80236700,.0002397,86.6786,37.6567,87.3606,272.7890,0,U,56730,999,16518,.11301E-3,.885E-5,0
