IRIDIUM 156             
1 43576U 18061H   26160.09405291  .00000213  00000+0  68913-4 0  9992
2 43576  86.3965  60.1133 0002107  80.6103 279.5331 14.34219798412214
IRIDIUM 164             
1 43577U 18061J   26160.07502794  .00000105  00000+0  30440-4 0  9991
2 43577  86.3967  60.1615 0002073  88.2235 271.9198 14.34217536412253
IRIDIUM 159             
1 43578U 18061K   26160.18285169  .00000204  00000+0  65616-4 0  9991
2 43578  86.3967  60.0535 0002322  84.5659 275.5802 14.34216862412231
IRIDIUM 180             
1 43922U 19002A   26160.04281134  .00000045  00000+0  90781-5 0  9998
2 43922  86.3973 357.0033 0002236  88.9807 271.1645 14.34218007387826
IRIDIUM 176             
1 43923U 19002B   26160.07082799  .00000684  00000+0  10460-3 0  9991
2 43923  86.6094 356.9359 0002210  91.0287 269.1183 14.72256003398053
IRIDIUM 168             
1 43924U 19002C   26160.03646961  .00000034  00000+0  52014-5 0  9997
2 43924  86.3976 357.0830 0002179  89.0454 271.0992 14.34217684387804
IRIDIUM 173             
1 43925U 19002D   26160.09355160  .00000059  00000+0  13891-4 0  9998
2 43925  86.3972 356.9482 0002242  86.4051 273.7401 14.34217322387798
IRIDIUM 169             
1 43926U 19002E   26160.18376848  .00000240  00000+0  71982-4 0  9992
2 43926  86.4233  28.5398 0002138  70.4497 289.6932 14.38610825389076
IRIDIUM 172             
1 43927U 19002F   26160.08720852  .00000095  00000+0  26873-4 0  9997
2 43927  86.3972 356.9589 0002272  89.0872 271.0584 14.34218564387805
IRIDIUM 175             
1 43928U 19002G   26160.09667538  .00000296  00000+0  81329-4 0  9990
2 43928  86.4506 293.9035 0001456 212.2035 147.9077 14.43608182397819
IRIDIUM 171             
1 43929U 19002H   26160.06818080  .00000169  00000+0  53291-4 0  9994
2 43929  86.3981 357.2719 0002007  86.6983 273.4443 14.34218825387796
IRIDIUM 170             
1 43930U 19002J   26160.07701133  .00000688  00000+0  10517-3 0  9996
2 43930  86.6092 356.9359 0002339  87.4821 272.6664 14.72256440398063
IRIDIUM 167             
1 43931U 19002K   26160.06183910  .00000023  00000+0  11969-5 0  9990
2 43931  86.3973 356.9915 0001857  86.3649 273.7759 14.34217599387792
IRIDIUM 181             
1 56726U 23068S   26159.78693282  .00000327  00000+0  91281-4 0  9999
2 56726  86.4503  60.3019 0002292  90.6912 269.4551 14.43310337161228
IRIDIUM 177             
1 56727U 23068T   26160.00754975  .00000988  00000+0  12651-3 0  9990
2 56727  86.1960 332.6774 0002432  85.8986 274.2513 14.80225018165159
IRIDIUM 174             
1 56728U 23068U   26160.06465397  .00000694  00000+0  10621-3 0  9993
2 56728  86.6100 357.0878 0002569  85.3548 274.7962 14.72252362164826
IRIDIUM 178             
1 56729U 23068V   26160.06428133  .00000872  00000+0  11129-3 0  9993
2 56729  86.6545  28.7551 0002670  89.1211 271.0317 14.80219470165166
IRIDIUM 179             
1 56730U 23068W   26160.19412079  .00000885  00000+0  11301-3 0  9997
2 56730  86.6786  37.6567 0002397  87.3606 272.7890 14.80236700165186
